{
    "links": {
        "self": "http://www.neowsapp.com/rest/v1/neo/3773656?api_key=iIulBulltgU6a56xZRHN4H3l9WmuAYTsLGpBGhQ2"
    },
    "id": "3773656",
    "neo_reference_id": "3773656",
    "name": "(2017 FR128)",
    "designation": "2017 FR128",
    "nasa_jpl_url": "http://ssd.jpl.nasa.gov/sbdb.cgi?sstr=3773656",
    "absolute_magnitude_h": 25.6,
    "estimated_diameter": {
        "kilometers": {
            "estimated_diameter_min": 0.0201629919,
            "estimated_diameter_max": 0.0450858206
        },
        "meters": {
            "estimated_diameter_min": 20.1629919443,
            "estimated_diameter_max": 45.0858206172
        },
        "miles": {
            "estimated_diameter_min": 0.0125286985,
            "estimated_diameter_max": 0.0280150214
        },
        "feet": {
            "estimated_diameter_min": 66.1515504905,
            "estimated_diameter_max": 147.9193637137
        }
    },
    "is_potentially_hazardous_asteroid": false,
    "close_approach_data": [
        {
            "close_approach_date": "2011-03-18",
            "close_approach_date_full": "2011-Mar-18 01:56",
            "epoch_date_close_approach": 1300413360000,
            "relative_velocity": {
                "kilometers_per_second": "6.6394051036",
                "kilometers_per_hour": "23901.8583728621",
                "miles_per_hour": "14851.685276182"
            },
            "miss_distance": {
                "astronomical": "1.170936243",
                "lunar": "455.494198527",
                "kilometers": "175169567.85860241",
                "miles": "108845322.242676858"
            },
            "orbiting_body": "Juptr"
        },
        {
            "close_approach_date": "2017-04-05",
            "close_approach_date_full": "2017-Apr-05 09:57",
            "epoch_date_close_approach": 1491386220000,
            "relative_velocity": {
                "kilometers_per_second": "7.0982680699",
                "kilometers_per_hour": "25553.7650514829",
                "miles_per_hour": "15878.1158454617"
            },
            "miss_distance": {
                "astronomical": "0.0487561679",
                "lunar": "18.9661493131",
                "kilometers": "7293818.867202373",
                "miles": "4532168.8846158274"
            },
            "orbiting_body": "Earth"
        },
        {
            "close_approach_date": "2023-02-27",
            "close_approach_date_full": "2023-Feb-27 12:21",
            "epoch_date_close_approach": 1677500460000,
            "relative_velocity": {
                "kilometers_per_second": "8.4749192868",
                "kilometers_per_hour": "30509.709432641",
                "miles_per_hour": "18957.546952743"
            },
            "miss_distance": {
                "astronomical": "1.6547403308",
                "lunar": "643.6939886812",
                "kilometers": "247545628.890775396",
                "miles": "153817721.1702206248"
            },
            "orbiting_body": "Juptr"
        },
        {
            "close_approach_date": "2116-06-03",
            "close_approach_date_full": "2116-Jun-03 22:34",
            "epoch_date_close_approach": 4620666840000,
            "relative_velocity": {
                "kilometers_per_second": "18.9614585702",
                "kilometers_per_hour": "68261.2508525548",
                "miles_per_hour": "42414.8866755777"
            },
            "miss_distance": {
                "astronomical": "0.341759579",
                "lunar": "132.944476231",
                "kilometers": "51126505.07049673",
                "miles": "31768537.124165674"
            },
            "orbiting_body": "Earth"
        }
    ],
    "orbital_data": {
        "orbit_id": "4",
        "orbit_determination_date": "2017-04-24 06:22:58",
        "first_observation_date": "2017-03-30",
        "last_observation_date": "2017-04-24",
        "data_arc_in_days": 25,
        "observations_used": 47,
        "orbit_uncertainty": "7",
        "minimum_orbit_intersection": ".0509645",
        "jupiter_tisserand_invariant": "3.104",
        "epoch_osculation": "2459000.5",
        "eccentricity": ".6029381321278048",
        "semi_major_axis": "2.645578169278907",
        "inclination": ".7628526442065701",
        "ascending_node_longitude": "140.0997712818813",
        "orbital_period": "1571.734999590086",
        "perihelion_distance": "1.050458209495785",
        "perihelion_argument": "54.48781212421995",
        "aphelion_distance": "4.240698129062028",
        "perihelion_time": "2459419.195973767883",
        "mean_anomaly": "264.0992593562216",
        "mean_motion": ".2290462451328559",
        "equinox": "J2000",
        "orbit_class": {
            "orbit_class_type": "AMO",
            "orbit_class_description": "Near-Earth asteroid orbits similar to that of 1221 Amor",
            "orbit_class_range": "1.017 AU < q (perihelion) < 1.3 AU"
        }
    },
    "is_sentry_object": false
}